[{"OBJECT_NAME":"ONEWEB-0174","OBJECT_ID":"2021-025AG","EPOCH":"2026-02-04T06:40:17.108256","MEAN_MOTION":13.13470412,"ECCENTRICITY":0.00019188,"INCLINATION":87.9023,"RA_OF_ASC_NODE":346.6407,"ARG_OF_PERICENTER":82.0577,"MEAN_ANOMALY":278.077,"EPHEMERIS_TYPE":0,"CLASSIFICATION_TYPE":"U","NORAD_CAT_ID":48072,"ELEMENT_SET_NO":999,"REV_AT_EPOCH":23638,"BSTAR":-0.00077274814,"MEAN_MOTION_DOT":-2.69e-6,"MEAN_MOTION_DDOT":0},{"OBJECT_NAME":"ONEWEB-0175","OBJECT_ID":"2021-025AH","EPOCH":"2026-02-04T07:24:10.528416","MEAN_MOTION":13.13471054,"ECCENTRICITY":0.00014522,"INCLINATION":87.9033,"RA_OF_ASC_NODE":346.6073,"ARG_OF_PERICENTER":84.4212,"MEAN_ANOMALY":275.7082,"EPHEMERIS_TYPE":0,"CLASSIFICATION_TYPE":"U","NORAD_CAT_ID":48073,"ELEMENT_SET_NO":999,"REV_AT_EPOCH":23604,"BSTAR":0.0010471036,"MEAN_MOTION_DOT":3.95e-6,"MEAN_MOTION_DDOT":0},{"OBJECT_NAME":"ONEWEB-0177","OBJECT_ID":"2021-025AJ","EPOCH":"2026-02-04T07:41:14.259552","MEAN_MOTION":13.1347024,"ECCENTRICITY":0.00019302,"INCLINATION":87.9034,"RA_OF_ASC_NODE":346.6255,"ARG_OF_PERICENTER":84.7113,"MEAN_ANOMALY":275.4237,"EPHEMERIS_TYPE":0,"CLASSIFICATION_TYPE":"U","NORAD_CAT_ID":48074,"ELEMENT_SET_NO":999,"REV_AT_EPOCH":23623,"BSTAR":0.00082674425,"MEAN_MOTION_DOT":3.15e-6,"MEAN_MOTION_DDOT":0},{"OBJECT_NAME":"ONEWEB-0178","OBJECT_ID":"2021-025AK","EPOCH":"2026-02-04T06:18:32.323968","MEAN_MOTION":13.13467797,"ECCENTRICITY":0.00018396,"INCLINATION":87.9018,"RA_OF_ASC_NODE":346.6706,"ARG_OF_PERICENTER":87.1954,"MEAN_ANOMALY":272.9386,"EPHEMERIS_TYPE":0,"CLASSIFICATION_TYPE":"U","NORAD_CAT_ID":48075,"ELEMENT_SET_NO":999,"REV_AT_EPOCH":23627,"BSTAR":-0.003692298,"MEAN_MOTION_DOT":-1.335e-5,"MEAN_MOTION_DDOT":0},{"OBJECT_NAME":"ONEWEB-0108","OBJECT_ID":"2021-025AL","EPOCH":"2026-02-04T07:09:32.393376","MEAN_MOTION":13.13470131,"ECCENTRICITY":0.00019287,"INCLINATION":87.9032,"RA_OF_ASC_NODE":346.6187,"ARG_OF_PERICENTER":75.0036,"MEAN_ANOMALY":285.1307,"EPHEMERIS_TYPE":0,"CLASSIFICATION_TYPE":"U","NORAD_CAT_ID":48076,"ELEMENT_SET_NO":999,"REV_AT_EPOCH":23620,"BSTAR":0.00069621142,"MEAN_MOTION_DOT":2.67e-6,"MEAN_MOTION_DDOT":0},{"OBJECT_NAME":"ONEWEB-0169","OBJECT_ID":"2021-025AM","EPOCH":"2026-02-04T06:06:09.778176","MEAN_MOTION":13.13470471,"ECCENTRICITY":0.00019124,"INCLINATION":87.9026,"RA_OF_ASC_NODE":346.6456,"ARG_OF_PERICENTER":74.5455,"MEAN_ANOMALY":285.5885,"EPHEMERIS_TYPE":0,"CLASSIFICATION_TYPE":"U","NORAD_CAT_ID":48077,"ELEMENT_SET_NO":999,"REV_AT_EPOCH":23485,"BSTAR":-0.00011704051,"MEAN_MOTION_DOT":-3.0e-7,"MEAN_MOTION_DDOT":0},{"OBJECT_NAME":"ONEWEB-0176","OBJECT_ID":"2021-031A","EPOCH":"2026-02-04T06:39:21.897792","MEAN_MOTION":13.14503448,"ECCENTRICITY":0.00016109,"INCLINATION":87.9029,"RA_OF_ASC_NODE":316.1974,"ARG_OF_PERICENTER":82.2276,"MEAN_ANOMALY":277.9037,"EPHEMERIS_TYPE":0,"CLASSIFICATION_TYPE":"U","NORAD_CAT_ID":48210,"ELEMENT_SET_NO":999,"REV_AT_EPOCH":23085,"BSTAR":-0.00022337129,"MEAN_MOTION_DOT":-7.0e-7,"MEAN_MOTION_DDOT":0},{"OBJECT_NAME":"ONEWEB-0184","OBJECT_ID":"2021-031B","EPOCH":"2026-02-04T06:00:32.730048","MEAN_MOTION":13.14503005,"ECCENTRICITY":0.00010725,"INCLINATION":87.9053,"RA_OF_ASC_NODE":316.1886,"ARG_OF_PERICENTER":96.5868,"MEAN_ANOMALY":263.5384,"EPHEMERIS_TYPE":0,"CLASSIFICATION_TYPE":"U","NORAD_CAT_ID":48211,"ELEMENT_SET_NO":999,"REV_AT_EPOCH":23082,"BSTAR":-0.00013863722,"MEAN_MOTION_DOT":-3.9e-7,"MEAN_MOTION_DDOT":0},{"OBJECT_NAME":"ONEWEB-0179","OBJECT_ID":"2021-031C","EPOCH":"2026-02-04T07:07:54.530688","MEAN_MOTION":13.14502922,"ECCENTRICITY":0.00019927,"INCLINATION":87.9034,"RA_OF_ASC_NODE":316.1854,"ARG_OF_PERICENTER":81.8371,"MEAN_ANOMALY":278.2985,"EPHEMERIS_TYPE":0,"CLASSIFICATION_TYPE":"U","NORAD_CAT_ID":48212,"ELEMENT_SET_NO":999,"REV_AT_EPOCH":23087,"BSTAR":0.00076503815,"MEAN_MOTION_DOT":2.96e-6,"MEAN_MOTION_DDOT":0},{"OBJECT_NAME":"ONEWEB-0180","OBJECT_ID":"2021-031D","EPOCH":"2026-02-04T06:05:07.008576","MEAN_MOTION":13.14502776,"ECCENTRICITY":0.00018322,"INCLINATION":87.9043,"RA_OF_ASC_NODE":316.1934,"ARG_OF_PERICENTER":86.2859,"MEAN_ANOMALY":273.8481,"EPHEMERIS_TYPE":0,"CLASSIFICATION_TYPE":"U","NORAD_CAT_ID":48213,"ELEMENT_SET_NO":999,"REV_AT_EPOCH":23075,"BSTAR":-0.00018160387,"MEAN_MOTION_DOT":-5.5e-7,"MEAN_MOTION_DDOT":0},{"OBJECT_NAME":"ONEWEB-0218","OBJECT_ID":"2021-031E","EPOCH":"2026-02-04T06:37:04.950336","MEAN_MOTION":13.14502687,"ECCENTRICITY":0.00013272,"INCLINATION":87.903,"RA_OF_ASC_NODE":316.1901,"ARG_OF_PERICENTER":108.8503,"MEAN_ANOMALY":251.2771,"EPHEMERIS_TYPE":0,"CLASSIFICATION_TYPE":"U","NORAD_CAT_ID":48214,"ELEMENT_SET_NO":999,"REV_AT_EPOCH":23091,"BSTAR":-0.00023150925,"MEAN_MOTION_DOT":-7.3e-7,"MEAN_MOTION_DDOT":0},{"OBJECT_NAME":"ONEWEB-0209","OBJECT_ID":"2021-031F","EPOCH":"2026-02-04T06:21:05.883552","MEAN_MOTION":13.14503655,"ECCENTRICITY":0.00018598,"INCLINATION":87.9023,"RA_OF_ASC_NODE":316.2221,"ARG_OF_PERICENTER":83.4368,"MEAN_ANOMALY":276.6973,"EPHEMERIS_TYPE":0,"CLASSIFICATION_TYPE":"U","NORAD_CAT_ID":48215,"ELEMENT_SET_NO":999,"REV_AT_EPOCH":23091,"BSTAR":-0.00045259959,"MEAN_MOTION_DOT":-1.55e-6,"MEAN_MOTION_DDOT":0},{"OBJECT_NAME":"ONEWEB-0198","OBJECT_ID":"2021-031G","EPOCH":"2026-02-04T05:58:27.819840","MEAN_MOTION":13.14503937,"ECCENTRICITY":0.00017301,"INCLINATION":87.9036,"RA_OF_ASC_NODE":316.2224,"ARG_OF_PERICENTER":95.4956,"MEAN_ANOMALY":264.6371,"EPHEMERIS_TYPE":0,"CLASSIFICATION_TYPE":"U","NORAD_CAT_ID":48216,"ELEMENT_SET_NO":999,"REV_AT_EPOCH":23102,"BSTAR":-2.479088e-6,"MEAN_MOTION_DOT":1.2e-7,"MEAN_MOTION_DDOT":0},{"OBJECT_NAME":"ONEWEB-0189","OBJECT_ID":"2021-031H","EPOCH":"2026-02-04T06:16:32.041344","MEAN_MOTION":13.14503456,"ECCENTRICITY":0.00017039,"INCLINATION":87.9034,"RA_OF_ASC_NODE":316.196,"ARG_OF_PERICENTER":90.3932,"MEAN_ANOMALY":269.7393,"EPHEMERIS_TYPE":0,"CLASSIFICATION_TYPE":"U","NORAD_CAT_ID":48217,"ELEMENT_SET_NO":999,"REV_AT_EPOCH":23076,"BSTAR":-0.00049861304,"MEAN_MOTION_DOT":-1.72e-6,"MEAN_MOTION_DDOT":0},{"OBJECT_NAME":"ONEWEB-0196","OBJECT_ID":"2021-031J","EPOCH":"2026-02-04T07:34:09.859296","MEAN_MOTION":13.14504069,"ECCENTRICITY":0.00017272,"INCLINATION":87.9027,"RA_OF_ASC_NODE":316.1978,"ARG_OF_PERICENTER":82.413,"MEAN_ANOMALY":277.7196,"EPHEMERIS_TYPE":0,"CLASSIFICATION_TYPE":"U","NORAD_CAT_ID":48218,"ELEMENT_SET_NO":999,"REV_AT_EPOCH":23077,"BSTAR":0.00056779957,"MEAN_MOTION_DOT":2.23e-6,"MEAN_MOTION_DDOT":0},{"OBJECT_NAME":"ONEWEB-0183","OBJECT_ID":"2021-031K","EPOCH":"2026-02-04T06:57:38.043360","MEAN_MOTION":13.1450282,"ECCENTRICITY":0.00019288,"INCLINATION":87.9019,"RA_OF_ASC_NODE":316.2032,"ARG_OF_PERICENTER":76.1084,"MEAN_ANOMALY":284.0261,"EPHEMERIS_TYPE":0,"CLASSIFICATION_TYPE":"U","NORAD_CAT_ID":48219,"ELEMENT_SET_NO":999,"REV_AT_EPOCH":23086,"BSTAR":0.00068233811,"MEAN_MOTION_DOT":2.66e-6,"MEAN_MOTION_DDOT":0},{"OBJECT_NAME":"ONEWEB-0185","OBJECT_ID":"2021-031L","EPOCH":"2026-02-04T07:35:19.101984","MEAN_MOTION":13.14503225,"ECCENTRICITY":0.00021159,"INCLINATION":87.9032,"RA_OF_ASC_NODE":316.1821,"ARG_OF_PERICENTER":81.526,"MEAN_ANOMALY":278.611,"EPHEMERIS_TYPE":0,"CLASSIFICATION_TYPE":"U","NORAD_CAT_ID":48220,"ELEMENT_SET_NO":999,"REV_AT_EPOCH":23079,"BSTAR":0.00032104856,"MEAN_MOTION_DOT":1.32e-6,"MEAN_MOTION_DDOT":0},{"OBJECT_NAME":"ONEWEB-0187","OBJECT_ID":"2021-031M","EPOCH":"2026-02-04T07:06:34.672032","MEAN_MOTION":13.14503864,"ECCENTRICITY":0.00018581,"INCLINATION":87.902,"RA_OF_ASC_NODE":316.2213,"ARG_OF_PERICENTER":85.1002,"MEAN_ANOMALY":275.0339,"EPHEMERIS_TYPE":0,"CLASSIFICATION_TYPE":"U","NORAD_CAT_ID":48221,"ELEMENT_SET_NO":999,"REV_AT_EPOCH":23080,"BSTAR":0.00059355252,"MEAN_MOTION_DOT":2.33e-6,"MEAN_MOTION_DDOT":0},{"OBJECT_NAME":"ONEWEB-0192","OBJECT_ID":"2021-031N","EPOCH":"2026-02-04T06:23:22.616736","MEAN_MOTION":13.14502959,"ECCENTRICITY":0.00016797,"INCLINATION":87.9023,"RA_OF_ASC_NODE":316.216,"ARG_OF_PERICENTER":80.3836,"MEAN_ANOMALY":279.7483,"EPHEMERIS_TYPE":0,"CLASSIFICATION_TYPE":"U","NORAD_CAT_ID":48222,"ELEMENT_SET_NO":999,"REV_AT_EPOCH":23071,"BSTAR":-0.00047164207,"MEAN_MOTION_DOT":-1.62e-6,"MEAN_MOTION_DDOT":0},{"OBJECT_NAME":"ONEWEB-0219","OBJECT_ID":"2021-031P","EPOCH":"2026-02-04T05:53:41.918784","MEAN_MOTION":13.14502468,"ECCENTRICITY":0.00019931,"INCLINATION":87.9033,"RA_OF_ASC_NODE":316.2024,"ARG_OF_PERICENTER":80.9876,"MEAN_ANOMALY":279.1479,"EPHEMERIS_TYPE":0,"CLASSIFICATION_TYPE":"U","NORAD_CAT_ID":48223,"ELEMENT_SET_NO":999,"REV_AT_EPOCH":23091,"BSTAR":9.8465912e-5,"MEAN_MOTION_DOT":4.9e-7,"MEAN_MOTION_DDOT":0},{"OBJECT_NAME":"ONEWEB-0202","OBJECT_ID":"2021-031Q","EPOCH":"2026-02-04T07:15:54.169920","MEAN_MOTION":13.14502544,"ECCENTRICITY":0.00015568,"INCLINATION":87.9022,"RA_OF_ASC_NODE":316.2012,"ARG_OF_PERICENTER":102.9082,"MEAN_ANOMALY":257.2222,"EPHEMERIS_TYPE":0,"CLASSIFICATION_TYPE":"U","NORAD_CAT_ID":48224,"ELEMENT_SET_NO":999,"REV_AT_EPOCH":23090,"BSTAR":0.00066086355,"MEAN_MOTION_DOT":2.58e-6,"MEAN_MOTION_DDOT":0},{"OBJECT_NAME":"ONEWEB-0204","OBJECT_ID":"2021-031R","EPOCH":"2026-02-04T06:15:22.459104","MEAN_MOTION":13.14503637,"ECCENTRICITY":0.00020701,"INCLINATION":87.9029,"RA_OF_ASC_NODE":316.2024,"ARG_OF_PERICENTER":74.1991,"MEAN_ANOMALY":285.9367,"EPHEMERIS_TYPE":0,"CLASSIFICATION_TYPE":"U","NORAD_CAT_ID":48225,"ELEMENT_SET_NO":999,"REV_AT_EPOCH":23079,"BSTAR":-0.00029607237,"MEAN_MOTION_DOT":-9.7e-7,"MEAN_MOTION_DDOT":0},{"OBJECT_NAME":"ONEWEB-0205","OBJECT_ID":"2021-031S","EPOCH":"2026-02-04T07:29:36.626208","MEAN_MOTION":13.1450372,"ECCENTRICITY":0.00018294,"INCLINATION":87.9035,"RA_OF_ASC_NODE":316.1836,"ARG_OF_PERICENTER":85.7526,"MEAN_ANOMALY":274.3813,"EPHEMERIS_TYPE":0,"CLASSIFICATION_TYPE":"U","NORAD_CAT_ID":48226,"ELEMENT_SET_NO":999,"REV_AT_EPOCH":23081,"BSTAR":0.00049034427,"MEAN_MOTION_DOT":1.95e-6,"MEAN_MOTION_DDOT":0}]
